NOAA 18                 
1 28654U 05018A   21323.49066762  .00000115  00000-0  86291-4 0  9997
2 28654  98.9772  28.8397 0014039 201.0379 159.0217 14.12658484850422
